     2.11           N: GPS NAV DATA                         RINEX VERSION / TYPE
teqc  2019Feb25                         20230504 17:05:55UTCPGM / RUN BY / DATE
Linux2.6.32-573.12.1.el6.x86_64|x86_64|gcc|Win64-MinGW64|=+ COMMENT
    1.2107D-08  0.0000D+00 -1.1921D-07  0.0000D+00          ION ALPHA
    9.4208D+04  0.0000D+00 -1.9661D+05  0.0000D+00          ION BETA
                                                            END OF HEADER
17 21 10 20 12  0  0.0 5.218312144279D-04 5.456968210638D-12 0.000000000000D+00
    2.500000000000D+01-9.053125000000D+01 4.195174745867D-09-9.475011752957D-01
   -4.606321454048D-06 1.368275063578D-02 7.519498467445D-06 5.153685848236D+03
    3.024000000000D+05-2.477318048477D-07-7.802244907046D-01 1.210719347000D-07
    9.809312262601D-01 2.510000000000D+02-1.548660870913D+00-8.156411175836D-09
   -2.814402945465D-10 1.000000000000D+00 2.180000000000D+03 0.000000000000D+00
    2.000000000000D+00 0.000000000000D+00-1.117587089539D-08 2.500000000000D+01
    2.960280000000D+05 4.000000000000D+00
19 21 10 20 11 59 44.0 6.831577047706D-05 5.002220859751D-12 0.000000000000D+00
    0.000000000000D+00-1.014062500000D+02 4.104099523647D-09 1.414099274111D+00
   -5.394220352173D-06 8.997492957860D-03 7.344409823418D-06 5.153661346436D+03
    3.023840000000D+05 1.173466444016D-07-7.352326060978D-01-1.490116119385D-07
    9.796255353014D-01 2.482812500000D+02 1.962149812056D+00-7.892828767999D-09
   -3.300137463972D-10 1.000000000000D+00 2.180000000000D+03 0.000000000000D+00
    2.000000000000D+00 0.000000000000D+00-1.583248376846D-08 0.000000000000D+00
    2.960280000000D+05 4.000000000000D+00
 9 21 10 20 11 59 44.0-3.618746995926D-04-1.136868377216D-13 0.000000000000D+00
    5.000000000000D+00-5.828125000000D+01 4.851987819054D-09-5.635043203082D-01
   -3.077089786530D-06 2.288267482072D-03 7.525086402893D-06 5.153688556671D+03
    3.023840000000D+05-4.842877388000D-08 2.282013150368D+00 1.862645149231D-09
    9.536602681438D-01 2.300000000000D+02 1.820341878763D+00-8.257486814613D-09
   -5.753811097899D-10 1.000000000000D+00 2.180000000000D+03 0.000000000000D+00
    2.000000000000D+00 0.000000000000D+00 1.396983861923D-09 5.000000000000D+00
    2.960280000000D+05 4.000000000000D+00
 4 21 10 20 12  0  0.0-2.033989876509D-04 5.684341886081D-13 0.000000000000D+00
    4.000000000000D+00-5.909375000000D+01 4.589119726685D-09-1.395034370633D+00
   -3.116205334663D-06 1.465069595724D-03 8.074566721916D-06 5.153684619904D+03
    3.024000000000D+05-5.401670932770D-08 2.334018910856D+00-6.519258022308D-08
    9.607793161321D-01 2.241875000000D+02-3.110223359733D+00-8.054621221590D-09
   -6.071681481333D-10 1.000000000000D+00 2.180000000000D+03 0.000000000000D+00
    2.000000000000D+00 0.000000000000D+00-4.190951585770D-09 4.000000000000D+00
    2.960280000000D+05 4.000000000000D+00
 6 21 10 20 12  0  0.0 9.872065857053D-05 8.412825991400D-12 0.000000000000D+00
    3.000000000000D+01 2.812500000000D+00 3.830516699253D-09-2.840911885646D+00
    2.346932888031D-07 2.271122182719D-03 1.217052340508D-05 5.153600589752D+03
    3.024000000000D+05 1.862645149231D-09 2.082827362463D-01 5.029141902924D-08
    9.855773268060D-01 1.577812500000D+02-1.034255728400D+00-7.539599768879D-09
    3.267993267894D-10 1.000000000000D+00 2.180000000000D+03 0.000000000000D+00
    2.000000000000D+00 0.000000000000D+00 4.190951585770D-09 3.000000000000D+01
    2.960280000000D+05 4.000000000000D+00
 3 21 10 20 12  0  0.0-3.315391950309D-04-1.307398633799D-11 0.000000000000D+00
    3.000000000000D+01 3.937500000000D+01 4.722339561541D-09 1.908492127398D+00
    1.922249794006D-06 3.887658473104D-03 4.801899194717D-06 5.153743696213D+03
    3.024000000000D+05-1.210719347000D-07 1.252511997889D+00-6.519258022308D-08
    9.706480386098D-01 2.906875000000D+02 9.991941712136D-01-8.179626428559D-09
    2.967980771169D-10 1.000000000000D+00 2.180000000000D+03 0.000000000000D+00
    2.000000000000D+00 0.000000000000D+00 1.862645149231D-09 3.000000000000D+01
    2.960280000000D+05 4.000000000000D+00
 1 21 10 20 12  0  0.0 5.340706557035D-04-1.068656274583D-11 0.000000000000D+00
    7.000000000000D+01-5.843750000000D+00 3.707654438690D-09 3.064524661867D+00
   -3.967434167862D-07 1.107182563283D-02 1.246854662895D-05 5.153677253723D+03
    3.024000000000D+05-1.676380634308D-08 2.165329680844D-01-1.844018697739D-07
    9.861618006145D-01 1.515625000000D+02 8.886841647826D-01-7.339234279995D-09
    3.317995350682D-10 1.000000000000D+00 2.180000000000D+03 0.000000000000D+00
    2.000000000000D+00 0.000000000000D+00 5.122274160385D-09 7.000000000000D+01
    2.960280000000D+05 4.000000000000D+00
 7 21 10 20 12  0  0.0 2.654539421201D-04 6.139089236967D-12 0.000000000000D+00
    7.500000000000D+01 6.178125000000D+01 4.315179744557D-09 2.436081276358D+00
    3.034248948097D-06 1.529223483521D-02 1.182407140732D-05 5.153738679886D+03
    3.024000000000D+05-5.029141902924D-08-2.929442333523D+00-2.942979335785D-07
    9.517820524914D-01 1.443125000000D+02-2.303587482076D+00-7.727107579332D-09
    1.000041655749D-10 1.000000000000D+00 2.180000000000D+03 0.000000000000D+00
    2.000000000000D+00 0.000000000000D+00-1.117587089539D-08 7.500000000000D+01
    2.960280000000D+05 4.000000000000D+00
28 21 10 20 12  0  0.0 4.789861850441D-04-7.275957614183D-12 0.000000000000D+00
    1.820000000000D+02 3.546875000000D+01 4.672694636487D-09-4.879502498408D-01
    1.842156052589D-06 1.744107971899D-02 2.823770046234D-06 5.153711605072D+03
    3.024000000000D+05-2.663582563400D-07-1.795391733387D+00 4.842877388000D-08
    9.706317051294D-01 3.344687500000D+02-1.325079551819D+00-8.643574325279D-09
    3.267993267894D-10 1.000000000000D+00 2.180000000000D+03 0.000000000000D+00
    4.000000000000D+00 6.300000000000D+01-1.117587089539D-08 1.820000000000D+02
    2.960580000000D+05 4.000000000000D+00
14 21 10 20 12  0  0.0-2.258503809571D-05-7.389644451905D-12 0.000000000000D+00
    4.600000000000D+01 4.975000000000D+01 4.929848205109D-09 1.672606273096D+00
    2.551823854446D-06 1.151929376647D-03 2.410262823105D-06 5.153643316269D+03
    3.024000000000D+05-3.725290298462D-09-1.847053746162D+00 3.166496753693D-08
    9.549802181650D-01 3.291250000000D+02 3.127720778673D+00-8.528569534868D-09
    2.314382117591D-10 1.000000000000D+00 2.180000000000D+03 0.000000000000D+00
    2.000000000000D+00 0.000000000000D+00-7.916241884232D-09 5.580000000000D+02
    2.960880000000D+05 4.000000000000D+00
11 21 10 20 12  0  0.0 2.124160528183D-05-1.136868377216D-13 0.000000000000D+00
    2.300000000000D+01 1.300000000000D+01 4.387682764599D-09-4.903022812523D-01
    7.431954145432D-07 4.509809659794D-04 1.181289553642D-05 5.153720647812D+03
    3.024000000000D+05-7.450580596924D-09 2.630123814414D-01 1.862645149231D-09
    9.611634433097D-01 1.525000000000D+02 2.326602286313D+00-7.866399095669D-09
    3.618007847406D-10 1.000000000000D+00 2.180000000000D+03 0.000000000000D+00
    5.700000000000D+00 6.300000000000D+01-8.847564458847D-09 5.350000000000D+02
    2.962680000000D+05 4.000000000000D+00
20 21 10 20 12  0  0.0 5.185469053686D-04-2.273736754432D-13 0.000000000000D+00
    6.900000000000D+01 4.909375000000D+01 5.447012604224D-09-2.048859787120D+00
    2.613291144371D-06 5.523582920432D-03 5.092471837997D-06 5.153666595459D+03
    3.024000000000D+05-4.470348358154D-08 1.101807841782D+00-1.266598701477D-07
    9.398190033253D-01 2.688125000000D+02 3.005645989357D+00-8.572499936174D-09
    3.943021385525D-10 1.000000000000D+00 2.180000000000D+03 0.000000000000D+00
    2.000000000000D+00 0.000000000000D+00-8.381903171539D-09 6.900000000000D+01
    2.962680000000D+05 4.000000000000D+00
 2 21 10 20 11 59 44.0-6.383196450770D-04-1.818989403546D-12 0.000000000000D+00
    0.000000000000D+00-8.312500000000D+00 4.121957410357D-09-2.984266884066D+00
   -3.762543201447D-07 2.035559294745D-02 1.239962875843D-05 5.153784120560D+03
    3.023840000000D+05 3.054738044739D-07 1.297747181865D-01 1.285225152969D-07
    9.646550601096D-01 1.356562500000D+02-1.486606789883D+00-7.435666868228D-09
    2.967980771169D-10 1.000000000000D+00 2.180000000000D+03 0.000000000000D+00
    2.000000000000D+00 0.000000000000D+00-1.769512891769D-08 0.000000000000D+00
    2.963520000000D+05 4.000000000000D+00
30 21 10 20 12  0  0.0-4.840600304306D-04-3.410605131648D-12 0.000000000000D+00
    2.400000000000D+01 6.587500000000D+01 4.705910305768D-09 2.358754993282D+00
    3.337860107422D-06 5.348416976631D-03 1.129694283009D-05 5.153640708923D+03
    3.024000000000D+05-1.080334186554D-07-2.914508574649D+00-5.774199962616D-08
    9.369615673644D-01 1.502500000000D+02-2.738674647306D+00-8.066407426819D-09
    5.964534161075D-11 1.000000000000D+00 2.180000000000D+03 0.000000000000D+00
    2.000000000000D+00 0.000000000000D+00 3.725290298462D-09 2.400000000000D+01
    2.970480000000D+05 4.000000000000D+00
13 21 10 20 12  0  0.0 2.023219130933D-04 5.570655048359D-12 0.000000000000D+00
    4.000000000000D+01-4.725000000000D+01 4.343395205559D-09-1.539000279253D+00
   -2.492219209671D-06 5.601452779956D-03 9.221956133842D-06 5.153680509567D+03
    3.024000000000D+05 1.396983861923D-07 2.432970446893D+00 4.097819328308D-08
    9.684244748123D-01 2.063125000000D+02 9.747093903185D-01-7.874256565821D-09
   -6.268118235141D-10 1.000000000000D+00 2.180000000000D+03 0.000000000000D+00
    2.000000000000D+00 0.000000000000D+00-1.117587089539D-08 4.000000000000D+01
    3.015480000000D+05 4.000000000000D+00
